FENGYUN 1C DEB          
1 30066U 99025PT  17345.66352771  .00000018  00000-0  28113-4 0  9995
2 30066  98.7291  14.4286 0120878  34.8567  84.8939 14.17429061564288
